ADRAS-J                 
1 58992U 24034A   24173.86635613  .00003964  00000+0  37014-3 0  9990
2 58992  98.2113 147.0971 0044685  35.5080 324.9098 14.94052167 18560
